{
  "norad_id": 62467,
  "name": "STARLINK-11486 [DTC]",
  "history": [
    {
      "epoch": "2026-03-28T10:06:06.783840Z",
      "apogee_km": 358.2868083545636,
      "perigee_km": 354.0273673439988,
      "latitude_deg": 1.1965587192794859e-05,
      "longitude_deg": 133.021541369015,
      "height_km": 356.5461740243721,
      "semi_major_axis_km": 6734.294087849281,
      "eccentricity": 0.00031625,
      "inclination_deg": 43.0009,
      "raan_deg": 110.3914,
      "arg_perigee_deg": 253.2026,
      "mean_anomaly_deg": 106.8495,
      "mean_motion_rev_day": 15.70958255
    },
    {
      "epoch": "2026-03-29T01:21:42.679008Z",
      "apogee_km": 357.0394121824902,
      "perigee_km": 354.978763479613,
      "latitude_deg": 4.216082394874274e-05,
      "longitude_deg": -100.33719456424868,
      "height_km": 356.4889338529914,
      "semi_major_axis_km": 6734.146087831051,
      "eccentricity": 0.000153,
      "inclination_deg": 43.0002,
      "raan_deg": 106.5589,
      "arg_perigee_deg": 226.6135,
      "mean_anomaly_deg": 133.4606,
      "mean_motion_rev_day": 15.71010044
    },
    {
      "epoch": "2026-03-30T04:49:48.876960Z",
      "apogee_km": 358.8390026176785,
      "perigee_km": 354.05744710802446,
      "latitude_deg": -3.0158486106323737e-05,
      "longitude_deg": -160.3903823940469,
      "height_km": 355.022715502067,
      "semi_major_axis_km": 6734.585224862851,
      "eccentricity": 0.000355,
      "inclination_deg": 42.999,
      "raan_deg": 99.6597,
      "arg_perigee_deg": 300.1061,
      "mean_anomaly_deg": 59.9454,
      "mean_motion_rev_day": 15.70856387
    },
    {
      "epoch": "2026-03-30T06:21:22.296960Z",
      "apogee_km": 358.5034460553379,
      "perigee_km": 354.32721546398807,
      "latitude_deg": -1.9854048802718956e-05,
      "longitude_deg": 176.27491012895968,
      "height_km": 355.6714497446619,
      "semi_major_axis_km": 6734.552330759663,
      "eccentricity": 0.00031006,
      "inclination_deg": 43.0,
      "raan_deg": 99.2769,
      "arg_perigee_deg": 284.351,
      "mean_anomaly_deg": 75.7013,
      "mean_motion_rev_day": 15.70867896
    },
    {
      "epoch": "2026-03-30T09:24:29.390976Z",
      "apogee_km": 358.1399820362367,
      "perigee_km": 354.5669307796852,
      "latitude_deg": 3.220784916265471e-05,
      "longitude_deg": 129.60416741560678,
      "height_km": 355.9856536282923,
      "semi_major_axis_km": 6734.490456407961,
      "eccentricity": 0.00026528,
      "inclination_deg": 42.9993,
      "raan_deg": 98.511,
      "arg_perigee_deg": 274.5304,
      "mean_anomaly_deg": 85.5261,
      "mean_motion_rev_day": 15.70889545
    },
    {
      "epoch": "2026-03-30T17:02:17.231424Z",
      "apogee_km": 357.5610281694662,
      "perigee_km": 354.96370502175887,
      "latitude_deg": 3.8660285482747094e-05,
      "longitude_deg": 12.925288317948912,
      "height_km": 355.67083463413354,
      "semi_major_axis_km": 6734.399366595612,
      "eccentricity": 0.00019284,
      "inclination_deg": 42.9996,
      "raan_deg": 96.5948,
      "arg_perigee_deg": 286.2929,
      "mean_anomaly_deg": 73.7727,
      "mean_motion_rev_day": 15.70921417
    }
  ]
}